SARSAT 7 (NOAA 15)      
1 25338U 98030A   24031.48229412  .00000237  00000+0  11650-3 0  9990
2 25338  98.5848  61.3885 0010459  13.1992 346.9460 14.26483363337803
GPS BIIR-08             
1 27663U 03005A   24030.60267045  .00000042  00000+0  00000+0 0  9995
2 27663  55.1687 249.5102 0137964  46.3911 330.2236  2.00557637153884
GPS BIIR-11             
1 28190U 04009A   24029.11965774 -.00000063  00000+0  00000+0 0  9998
2 28190  55.5714 310.6280 0092913 142.8447  40.5653  2.00562897145498
GPS BIIR-13             
1 28474U 04045A   24030.84089965 -.00000083  00000+0  00000+0 0  9996
2 28474  55.4425 359.7466 0164851 288.0343 104.9081  2.00538343141013
SARSAT 10 (NOAA 18)     
1 28654U 05018A   24031.42662304  .00000293  00000+0  18052-3 0  9998
2 28654  98.8876 109.4876 0015215  94.4062 265.8849 14.13112593963805
GPS BIIR-14M            
1 28874U 05038A   24029.58705668 -.00000060  00000+0  00000+0 0  9992
2 28874  55.6195 308.0658 0138746 282.8459 262.4507  2.00565379134381
METEOSAT-9 (MSG-2)      
1 28912U 05049B   24031.14065736  .00000137  00000+0  00000+0 0  9991
2 28912   7.3679  62.0076 0000558 272.3235 252.0291  1.00279485 66378
GOES 13                 
1 29155U 06018A   24030.86061823  .00000059  00000+0  00000+0 0  9992
2 29155   2.2629  86.9489 0088186 249.2344 181.3060  0.99152219 34664
GPS BIIR-16M            
1 29601U 06052A   24027.90232115  .00000033  00000+0  00000+0 0  9993
2 29601  55.1957 248.5867 0087189  80.4976 280.5521  2.00558344125933
GPS BIIR-17M            
1 32260U 07047A   24028.20820853 -.00000009  00000+0  00000+0 0  9993
2 32260  53.5333 116.0929 0152243  73.6069 288.0939  2.00571867119346
GPS BIIR-18M            
1 32384U 07062A   24030.72864618 -.00000060  00000+0  00000+0 0  9991
2 32384  55.7543 308.8635 0024353 148.3699 359.6349  2.00566529118094
SARSAT 12 (NOAA 19)     
1 33591U 09005A   24031.42978314  .00000256  00000+0  16185-3 0  9999
2 33591  99.0689  85.6551 0013194 323.5892  36.4381 14.12917285772173
GOES 14                 
1 35491U 09033A   24030.89507924 -.00000052  00000+0  00000+0 0  9996
2 35491   0.0617 209.0639 0000932 158.6843 335.5735  1.00273301 53406
GOES 15                 
1 36411U 10008A   24031.14379017  .00000051  00000+0  00000+0 0  9990
2 36411   0.0494 258.5218 0004671  16.7055 328.0514  1.00267740 50923
GPS BIIF-2              
1 37753U 11036A   24031.42677113 -.00000075  00000+0  00000+0 0  9998
2 37753  56.7617   5.6874 0124780  56.5427  17.7556  2.00525782 91866
GSAT0101 (GALILEO-PFM)  
1 37846U 11060A   24028.35624209 -.00000085  00000+0  00000+0 0  9995
2 37846  57.1251   5.3428 0003487 338.1701  21.8049  1.70476025 76276
GSAT0102 (GALILEO-FM2)  
1 37847U 11060B   24030.34188060 -.00000078  00000+0  00000+0 0  9990
2 37847  57.1258   5.2893 0005185 322.9180 221.6477  1.70475447 76315
LUCH 5A                 
1 37951U 11074B   24030.87828384 -.00000036  00000+0  00000+0 0  9993
2 37951   6.5258  87.2284 0002838 217.6615 307.8207  1.00274438 44489
METEOSAT-10 (MSG-3)     
1 38552U 12035B   24031.05998728  .00000009  00000+0  00000+0 0  9999
2 38552   2.6575  59.6948 0001064 254.4271 197.4674  1.00277099 42512
SARSAT 13 (METOP-B)     
1 38771U 12049A   24031.42420660  .00000175  00000+0  99602-4 0  9998
2 38771  98.6487  91.6142 0001661  86.7736 273.3631 14.21462776589977
GPS BIIF-3              
1 38833U 12053A   24029.79340395  .00000052  00000+0  00000+0 0  9998
2 38833  53.5147 179.1644 0149053  54.8182 306.5294  2.00556432 82000
GSAT0103 (GALILEO-FM3)  
1 38857U 12055A   24028.98207359 -.00000005  00000+0  00000+0 0  9997
2 38857  55.3444 125.4605 0003854 252.9873 106.9884  1.70473665 70177
GSAT0104 (GALILEO-FM4)  
1 38858U 12055B   24030.12451735  .00000000  00000+0  00000+0 0  9990
2 38858  55.3439 125.4305 0002000 236.7647 123.2390  1.70473754 70195
GPS BIIF-4              
1 39166U 13023A   24029.16051774 -.00000055  00000+0  00000+0 0  9991
2 39166  55.2329 304.2203 0121276  42.4333 318.5449  2.00563541 78437
INSAT-3D                
1 39216U 13038B   24031.43435904 -.00000140  00000+0  00000+0 0  9992
2 39216   0.1051 273.4364 0002835  18.8758  76.2619  1.00271821 38604
GPS BIIF-5              
1 39533U 14008A   24029.66205751  .00000055  00000+0  00000+0 0  9993
2 39533  53.5994 184.7482 0068767 216.0343 143.4659  2.00560146 72248
LUCH 5V                 
1 39727U 14023A   24031.07878419 -.00000255  00000+0  00000+0 0  9993
2 39727   2.9521  76.7838 0003528 242.1958 293.9093  1.00271388553803
GPS BIIF-6              
1 39741U 14026A   24028.94578603 -.00000087  00000+0  00000+0 0  9999
2 39741  56.7109   5.3030 0033014 311.7870  47.9293  2.00578376 71081
GPS BIIF-7              
1 40105U 14045A   24030.52833660  .00000003  00000+0  00000+0 0  9997
2 40105  54.8705 123.1500 0026242 117.5229 242.7739  2.00556544 68656
GSAT0201 (GALILEO 5)    
1 40128U 14050A   24029.48830729 -.00000080  00000+0  00000+0 0  9990
2 40128  49.7961 308.6749 1605773 145.8780 225.5940  1.85519706 62188
GSAT0202 (GALILEO 6)    
1 40129U 14050B   24030.28612478 -.00000078  00000+0  00000+0 0  9997
2 40129  49.8130 307.7174 1604026 146.7170 224.5060  1.85520478 64332
GPS BIIF-8              
1 40294U 14068A   24030.89388779 -.00000039  00000+0  00000+0 0  9997
2 40294  56.3031  64.6402 0048541  60.0530 300.4923  2.00550806 67771
GLONASS-K 2             
1 40315U 14075A   24030.70177476  .00000084  00000+0  00000+0 0  9998
2 40315  63.6290 220.4920 0018081 203.3051 156.6321  2.13101425 71340
GPS BIIF-9              
1 40534U 15013A   24030.53850246  .00000051  00000+0  00000+0 0  9992
2 40534  53.3978 240.1449 0086791  28.7541 331.7650  2.00574201 64405
GSAT0203 (GALILEO 7)    
1 40544U 15017A   24029.89520165 -.00000080  00000+0  00000+0 0  9991
2 40544  56.9206   5.2542 0005243 277.9847  81.9482  1.70475942 54384
GSAT0204 (GALILEO 8)    
1 40545U 15017B   24029.56263212 -.00000081  00000+0  00000+0 0  9994
2 40545  56.9268   5.2782 0004687 268.4073  91.5308  1.70475721 17429
GPS BIIF-10             
1 40730U 15033A   24030.20135761 -.00000053  00000+0  00000+0 0  9997
2 40730  54.7177 302.7205 0091986  16.4096 343.9363  2.00574407 62564
METEOSAT-11 (MSG-4)     
1 40732U 15034A   24031.27658684  .00000076  00000+0  00000+0 0  9996
2 40732   1.0585  64.3634 0002521 203.1287 331.2566  1.00270728 31306
GSAT0205 (GALILEO 9)    
1 40889U 15045A   24031.09105256  .00000062  00000+0  00000+0 0  9998
2 40889  55.2840 245.5854 0006427  39.2545 320.8448  1.70473338 52210
GSAT0206 (GALILEO 10)   
1 40890U 15045B   24028.96535904  .00000054  00000+0  00000+0 0  9990
2 40890  55.2842 245.6399 0004400  37.0387 323.0515  1.70473339 52208
GPS BIIF-11             
1 41019U 15062A   24029.75508229 -.00000040  00000+0  00000+0 0  9997
2 41019  56.2843  64.5371 0094578 224.3706 134.9314  2.00562462 60398
ELEKTRO-L 2             
1 41105U 15074A   24030.91378911 -.00000104  00000+0  00000+0 0  9990
2 41105   4.4873  81.1378 0003261 201.9872 160.9852  1.00271364 29802
GSAT0209 (GALILEO 12)   
1 41174U 15079A   24029.13565082 -.00000004  00000+0  00000+0 0  9999
2 41174  55.3623 125.1644 0003163 304.8341  55.1556  1.70474878 49941
GSAT0208 (GALILEO 11)   
1 41175U 15079B   24028.18216795 -.00000009  00000+0  00000+0 0  9993
2 41175  55.3606 125.1885 0002615 299.8940  60.0939  1.70474730 50342
GPS BIIF-12             
1 41328U 16007A   24030.83586617  .00000003  00000+0  00000+0 0  9996
2 41328  55.0704 123.9493 0076649 235.6738 123.6284  2.00568599 58461
GSAT0211 (GALILEO 14)   
1 41549U 16030A   24028.89105892  .00000054  00000+0  00000+0 0  9998
2 41549  55.4319 245.6380 0004118   7.6471 352.4195  1.70473490 47835
GSAT0210 (GALILEO 13)   
1 41550U 16030B   24030.94209404  .00000062  00000+0  00000+0 0  9992
2 41550  55.4307 245.5825 0002001 354.3612   5.6897  1.70473709 47845
INSAT-3DR               
1 41752U 16054A   24031.14622681 -.00000062  00000+0  00000+0 0  9992
2 41752   0.0282  93.7455 0013837 183.2410 339.5015  1.00272264 27095
GSAT0207 (GALILEO 15)   
1 41859U 16069A   24031.18914466  .00000002  00000+0  00000+0 0  9998
2 41859  55.0267 125.1432 0003648 284.3632  75.6217  1.70474864 44828
GSAT0212 (GALILEO 16)   
1 41860U 16069B   24029.87044267 -.00000002  00000+0  00000+0 0  9997
2 41860  55.0239 125.1764 0001854 319.0400  40.9683  1.70475052 44836
GSAT0213 (GALILEO 17)   
1 41861U 16069C   24026.13157891 -.00000022  00000+0  00000+0 0  9994
2 41861  55.0254 125.2863 0002948 259.5038 100.4614  1.70473644 44634
GSAT0214 (GALILEO 18)   
1 41862U 16069D   24030.38425611  .00000000  00000+0  00000+0 0  9990
2 41862  55.0251 125.1618 0005564 277.8519  82.1088  1.70474859 44835
GOES 16                 
1 41866U 16071A   24031.47465054 -.00000233  00000+0  00000+0 0  9992
2 41866   0.0868 262.0789 0001133  84.9696 238.7926  1.00272727 26398
GSAT-17                 
1 42815U 17040B   24030.84007824 -.00000244  00000+0  00000+0 0  9993
2 42815   0.0147 108.9902 0005610 167.9713 248.5235  1.00272758 24084
GSAT0215 (GALILEO 19)   
1 43055U 17079A   24030.28698165  .00000059  00000+0  00000+0 0  9997
2 43055  55.4085 245.4233 0001594   7.3316 352.7251  1.70474209 38176
GSAT0216 (GALILEO 20)   
1 43056U 17079B   24028.81904635  .00000054  00000+0  00000+0 0  9991
2 43056  55.4093 245.4636 0002431 328.5935  31.4522  1.70474315 38168
GSAT0217 (GALILEO 21)   
1 43057U 17079C   24030.21261986  .00000059  00000+0  00000+0 0  9999
2 43057  55.4064 245.4241 0003021 351.2876   8.7618  1.70474218 38178
GSAT0218 (GALILEO 22)   
1 43058U 17079D   24031.01922249  .00000062  00000+0  00000+0 0  9999
2 43058  55.4063 245.3993 0002711 316.3356  43.6956  1.70474277 38180
GOES 17                 
1 43226U 18022A   24030.89586243 -.00000076  00000+0  00000+0 0  9996
2 43226   0.0203 146.4833 0001632 142.4606  58.4897  1.00271522 21710
GSAT0221 (GALILEO 25)   
1 43564U 18060A   24026.22615296 -.00000091  00000+0  00000+0 0  9993
2 43564  57.3005   5.3184 0005894 289.4782  70.4471  1.70475775 34284
